{
  "type": "FeatureCollection",
  "features": [
    {
      "type": "Feature",
      "properties": {
        "norad_id": 39160,
        "name": "VNREDSAT 1",
        "group": "resource",
        "lat": -71.99346090143644,
        "lon": -165.44845374690874,
        "alt_km": 685.5626334362751,
        "timestamp": "2025-12-10T14:53:36.779588+00:00",
        "meta_object_name": "VNREDSAT 1",
        "meta_object_id": "2013-021B",
        "meta_epoch": "2025-12-10T07:10:53.325984",
        "meta_mean_motion": 14.64916523,
        "meta_eccentricity": 0.0001309,
        "meta_inclination": 97.9372,
        "meta_ra_of_asc_node": 39.6595,
        "meta_arg_of_pericenter": 78.8244,
        "meta_mean_anomaly": 281.3107,
        "meta_ephemeris_type": 0,
        "meta_classification_type": "U",
        "meta_norad_cat_id": 39160,
        "meta_element_set_no": 999,
        "meta_rev_at_epoch": 67263,
        "meta_bstar": 0.00017127239,
        "meta_mean_motion_dot": 8.7e-06,
        "meta_mean_motion_ddot": 0,
        "tle_line1": "1 39160U 13021B   25344.29922831  .00000870  00000+0  17127-3 0  9995",
        "tle_line2": "2 39160  97.9372  39.6595 0001309  78.8244 281.3107 14.64916523672638"
      },
      "geometry": {
        "type": "Point",
        "coordinates": [
          -165.44845374690874,
          -71.99346090143644
        ]
      }
    },
    {
      "type": "Feature",
      "properties": {
        "norad_id": 39227,
        "name": "ARIRANG-5 (KOMPSAT-5)",
        "group": "resource",
        "lat": 30.258649666874152,
        "lon": 164.47875565949073,
        "alt_km": 549.2295655359103,
        "timestamp": "2025-12-10T14:53:36.779597+00:00",
        "meta_object_name": "ARIRANG-5 (KOMPSAT-5)",
        "meta_object_id": "2013-042A",
        "meta_epoch": "2025-12-10T06:46:37.494624",
        "meta_mean_motion": 15.04484461,
        "meta_eccentricity": 0.00038918,
        "meta_inclination": 97.6143,
        "meta_ra_of_asc_node": 168.6216,
        "meta_arg_of_pericenter": 61.4435,
        "meta_mean_anomaly": 298.7183,
        "meta_ephemeris_type": 0,
        "meta_classification_type": "U",
        "meta_norad_cat_id": 39227,
        "meta_element_set_no": 999,
        "meta_rev_at_epoch": 67545,
        "meta_bstar": 8.008148e-05,
        "meta_mean_motion_dot": 1.06e-05,
        "meta_mean_motion_ddot": 0,
        "tle_line1": "1 39227U 13042A   25344.28237841  .00001060  00000+0  80081-4 0  9993",
        "tle_line2": "2 39227  97.6143 168.6216 0003891  61.4435 298.7183 15.04484461675451"
      },
      "geometry": {
        "type": "Point",
        "coordinates": [
          164.47875565949073,
          30.258649666874152
        ]
      }
    },
    {
      "type": "Feature",
      "properties": {
        "norad_id": 39418,
        "name": "SKYSAT-A",
        "group": "resource",
        "lat": -10.059396369486663,
        "lon": 36.21626353225205,
        "alt_km": 539.4350512897736,
        "timestamp": "2025-12-10T14:53:36.779606+00:00",
        "meta_object_name": "SKYSAT-A",
        "meta_object_id": "2013-066C",
        "meta_epoch": "2025-12-10T02:13:41.984256",
        "meta_mean_motion": 15.1157189,
        "meta_eccentricity": 0.00206786,
        "meta_inclination": 97.4109,
        "meta_ra_of_asc_node": 34.3815,
        "meta_arg_of_pericenter": 246.4285,
        "meta_mean_anomaly": 113.4774,
        "meta_ephemeris_type": 0,
        "meta_classification_type": "U",
        "meta_norad_cat_id": 39418,
        "meta_element_set_no": 999,
        "meta_rev_at_epoch": 65990,
        "meta_bstar": 0.00034689234,
        "meta_mean_motion_dot": 5.852e-05,
        "meta_mean_motion_ddot": 0,
        "tle_line1": "1 39418U 13066C   25344.09284704  .00005852  00000+0  34689-3 0  9995",
        "tle_line2": "2 39418  97.4109  34.3815 0020678 246.4285 113.4774 15.11571890659909"
      },
      "geometry": {
        "type": "Point",
        "coordinates": [
          36.21626353225205,
          -10.059396369486663
        ]
      }
    },
    {
      "type": "Feature",
      "properties": {
        "norad_id": 39419,
        "name": "DUBAISAT-2",
        "group": "resource",
        "lat": 23.14467958208023,
        "lon": 158.29800981436162,
        "alt_km": 548.4662448243289,
        "timestamp": "2025-12-10T14:53:36.779615+00:00",
        "meta_object_name": "DUBAISAT-2",
        "meta_object_id": "2013-066D",
        "meta_epoch": "2025-12-10T06:14:25.844640",
        "meta_mean_motion": 15.08317434,
        "meta_eccentricity": 0.00109364,
        "meta_inclination": 97.4453,
        "meta_ra_of_asc_node": 334.7441,
        "meta_arg_of_pericenter": 329.9722,
        "meta_mean_anomaly": 30.0879,
        "meta_ephemeris_type": 0,
        "meta_classification_type": "U",
        "meta_norad_cat_id": 39419,
        "meta_element_set_no": 999,
        "meta_rev_at_epoch": 65789,
        "meta_bstar": 0.00045842029,
        "meta_mean_motion_dot": 7.064e-05,
        "meta_mean_motion_ddot": 0,
        "tle_line1": "1 39419U 13066D   25344.26002135  .00007064  00000+0  45842-3 0  9991",
        "tle_line2": "2 39419  97.4453 334.7441 0010936 329.9722  30.0879 15.08317434657897"
      },
      "geometry": {
        "type": "Point",
        "coordinates": [
          158.29800981436162,
          23.14467958208023
        ]
      }
    },
    {
      "type": "Feature",
      "properties": {
        "norad_id": 39574,
        "name": "GPM-CORE",
        "group": "resource",
        "lat": 9.50740674040342,
        "lon": -135.7364178876543,
        "alt_km": 431.9987702587814,
        "timestamp": "2025-12-10T14:53:36.779625+00:00",
        "meta_object_name": "GPM-CORE",
        "meta_object_id": "2014-009C",
        "meta_epoch": "2025-12-10T07:04:59.088576",
        "meta_mean_motion": 15.45475564,
        "meta_eccentricity": 0.00105136,
        "meta_inclination": 64.9736,
        "meta_ra_of_asc_node": 220.8667,
        "meta_arg_of_pericenter": 270.1969,
        "meta_mean_anomaly": 89.7967,
        "meta_ephemeris_type": 0,
        "meta_classification_type": "U",
        "meta_norad_cat_id": 39574,
        "meta_element_set_no": 999,
        "meta_rev_at_epoch": 66863,
        "meta_bstar": 0.00038863103,
        "meta_mean_motion_dot": 0.0001856,
        "meta_mean_motion_ddot": 0,
        "tle_line1": "1 39574U 14009C   25344.29512834  .00018560  00000+0  38863-3 0  9994",
        "tle_line2": "2 39574  64.9736 220.8667 0010513 270.1969  89.7967 15.45475564668631"
      },
      "geometry": {
        "type": "Point",
        "coordinates": [
          -135.7364178876543,
          9.50740674040342
        ]
      }
    },
    {
      "type": "Feature",
      "properties": {
        "norad_id": 39634,
        "name": "SENTINEL-1A",
        "group": "resource",
        "lat": 21.36301886320864,
        "lon": 173.1183565889711,
        "alt_km": 695.3734767614278,
        "timestamp": "2025-12-10T14:53:36.779634+00:00",
        "meta_object_name": "SENTINEL-1A",
        "meta_object_id": "2014-016A",
        "meta_epoch": "2025-12-10T07:35:15.837792",
        "meta_mean_motion": 14.59201338,
        "meta_eccentricity": 0.00012677,
        "meta_inclination": 98.1802,
        "meta_ra_of_asc_node": 349.593,
        "meta_arg_of_pericenter": 83.8943,
        "meta_mean_anomaly": 276.2401,
        "meta_ephemeris_type": 0,
        "meta_classification_type": "U",
        "meta_norad_cat_id": 39634,
        "meta_element_set_no": 999,
        "meta_rev_at_epoch": 62247,
        "meta_bstar": 8.6692207e-05,
        "meta_mean_motion_dot": 3.63e-06,
        "meta_mean_motion_ddot": 0,
        "tle_line1": "1 39634U 14016A   25344.31615553  .00000363  00000+0  86692-4 0  9990",
        "tle_line2": "2 39634  98.1802 349.5930 0001267  83.8943 276.2401 14.59201338622478"
      },
      "geometry": {
        "type": "Point",
        "coordinates": [
          173.1183565889711,
          21.36301886320864
        ]
      }
    },
    {
      "type": "Feature",
      "properties": {
        "norad_id": 39731,
        "name": "KAZEOSAT 1",
        "group": "resource",
        "lat": -79.34244139207594,
        "lon": -174.66863433717845,
        "alt_km": 759.7982043354359,
        "timestamp": "2025-12-10T14:53:36.779643+00:00",
        "meta_object_name": "KAZEOSAT 1",
        "meta_object_id": "2014-024A",
        "meta_epoch": "2025-12-10T07:00:54.146304",
        "meta_mean_motion": 14.42060545,
        "meta_eccentricity": 0.00010956,
        "meta_inclination": 98.3432,
        "meta_ra_of_asc_node": 56.2543,
        "meta_arg_of_pericenter": 95.154,
        "meta_mean_anomaly": 264.9775,
        "meta_ephemeris_type": 0,
        "meta_classification_type": "U",
        "meta_norad_cat_id": 39731,
        "meta_element_set_no": 999,
        "meta_rev_at_epoch": 61133,
        "meta_bstar": 0.00014328836,
        "meta_mean_motion_dot": 4.28e-06,
        "meta_mean_motion_ddot": 0,
        "tle_line1": "1 39731U 14024A   25344.29229336  .00000428  00000+0  14329-3 0  9993",
        "tle_line2": "2 39731  98.3432  56.2543 0001095  95.1540 264.9775 14.42060545611333"
      },
      "geometry": {
        "type": "Point",
        "coordinates": [
          -174.66863433717845,
          -79.34244139207594
        ]
      }
    }
  ]
}